{
  "type": "FeatureCollection",
  "features": [
    {
      "type": "Feature",
      "properties": {
        "norad_id": 67112,
        "name": "STARLINK-35906",
        "group": "last-30-days",
        "lat": 3.151420288056636,
        "lon": 41.961931628349205,
        "alt_km": 345.5004716038575,
        "timestamp": "2025-12-27T15:27:09.834198+00:00",
        "meta_object_name": "STARLINK-35906",
        "meta_object_id": "2025-299L",
        "meta_epoch": "2025-12-27T06:00:02.000160",
        "meta_mean_motion": 15.76131002,
        "meta_eccentricity": 0.00015807,
        "meta_inclination": 42.9989,
        "meta_ra_of_asc_node": 227.7403,
        "meta_arg_of_pericenter": 271.5732,
        "meta_mean_anomaly": 187.4893,
        "meta_ephemeris_type": 0,
        "meta_classification_type": "U",
        "meta_norad_cat_id": 67112,
        "meta_element_set_no": 999,
        "meta_rev_at_epoch": 303,
        "meta_bstar": -0.013298905,
        "meta_mean_motion_dot": -0.0186978,
        "meta_mean_motion_ddot": 0,
        "tle_line1": "1 67112U 25299L   25361.25002315 -.01869780  00000+0 -13299-1 0  9994",
        "tle_line2": "2 67112  42.9989 227.7403 0001580 271.5732 187.4893 15.76131002  3038"
      },
      "geometry": {
        "type": "Point",
        "coordinates": [
          41.961931628349205,
          3.151420288056636
        ]
      }
    },
    {
      "type": "Feature",
      "properties": {
        "norad_id": 67113,
        "name": "STARLINK-35789",
        "group": "last-30-days",
        "lat": 2.0132880384478358,
        "lon": 43.18299871217024,
        "alt_km": 345.6446649214695,
        "timestamp": "2025-12-27T15:27:09.834210+00:00",
        "meta_object_name": "STARLINK-35789",
        "meta_object_id": "2025-299M",
        "meta_epoch": "2025-12-27T06:00:02.000160",
        "meta_mean_motion": 15.76144095,
        "meta_eccentricity": 0.00016292,
        "meta_inclination": 42.9988,
        "meta_ra_of_asc_node": 227.736,
        "meta_arg_of_pericenter": 273.6551,
        "meta_mean_anomaly": 187.0618,
        "meta_ephemeris_type": 0,
        "meta_classification_type": "U",
        "meta_norad_cat_id": 67113,
        "meta_element_set_no": 999,
        "meta_rev_at_epoch": 303,
        "meta_bstar": -0.013307236,
        "meta_mean_motion_dot": -0.01871793,
        "meta_mean_motion_ddot": 0,
        "tle_line1": "1 67113U 25299M   25361.25002315 -.01871793  00000+0 -13307-1 0  9992",
        "tle_line2": "2 67113  42.9988 227.7360 0001629 273.6551 187.0618 15.76144095  3033"
      },
      "geometry": {
        "type": "Point",
        "coordinates": [
          43.18299871217024,
          2.0132880384478358
        ]
      }
    },
    {
      "type": "Feature",
      "properties": {
        "norad_id": 67114,
        "name": "STARLINK-36180",
        "group": "last-30-days",
        "lat": 0.7515726040678213,
        "lon": 44.533881190455205,
        "alt_km": 345.67251391234095,
        "timestamp": "2025-12-27T15:27:09.834223+00:00",
        "meta_object_name": "STARLINK-36180",
        "meta_object_id": "2025-299N",
        "meta_epoch": "2025-12-27T06:00:02.000160",
        "meta_mean_motion": 15.76146027,
        "meta_eccentricity": 0.0001516,
        "meta_inclination": 42.9987,
        "meta_ra_of_asc_node": 227.7315,
        "meta_arg_of_pericenter": 270.7013,
        "meta_mean_anomaly": 191.8615,
        "meta_ephemeris_type": 0,
        "meta_classification_type": "U",
        "meta_norad_cat_id": 67114,
        "meta_element_set_no": 999,
        "meta_rev_at_epoch": 314,
        "meta_bstar": -0.013290477,
        "meta_mean_motion_dot": -0.01869783,
        "meta_mean_motion_ddot": 0,
        "tle_line1": "1 67114U 25299N   25361.25002315 -.01869783  00000+0 -13290-1 0  9990",
        "tle_line2": "2 67114  42.9987 227.7315 0001516 270.7013 191.8615 15.76146027  3148"
      },
      "geometry": {
        "type": "Point",
        "coordinates": [
          44.533881190455205,
          0.7515726040678213
        ]
      }
    },
    {
      "type": "Feature",
      "properties": {
        "norad_id": 67115,
        "name": "STARLINK-35892",
        "group": "last-30-days",
        "lat": -0.3987765638424212,
        "lon": 45.763890319525345,
        "alt_km": 345.73864648816743,
        "timestamp": "2025-12-27T15:27:09.834236+00:00",
        "meta_object_name": "STARLINK-35892",
        "meta_object_id": "2025-299P",
        "meta_epoch": "2025-12-27T06:00:02.000160",
        "meta_mean_motion": 15.76152284,
        "meta_eccentricity": 0.00015151,
        "meta_inclination": 42.9987,
        "meta_ra_of_asc_node": 227.7269,
        "meta_arg_of_pericenter": 270.0589,
        "meta_mean_anomaly": 194.179,
        "meta_ephemeris_type": 0,
        "meta_classification_type": "U",
        "meta_norad_cat_id": 67115,
        "meta_element_set_no": 999,
        "meta_rev_at_epoch": 303,
        "meta_bstar": -0.013247689,
        "meta_mean_motion_dot": -0.01865004,
        "meta_mean_motion_ddot": 0,
        "tle_line1": "1 67115U 25299P   25361.25002315 -.01865004  00000+0 -13248-1 0  9996",
        "tle_line2": "2 67115  42.9987 227.7269 0001515 270.0589 194.1790 15.76152284  3037"
      },
      "geometry": {
        "type": "Point",
        "coordinates": [
          45.763890319525345,
          -0.3987765638424212
        ]
      }
    },
    {
      "type": "Feature",
      "properties": {
        "norad_id": 67116,
        "name": "STARLINK-35738",
        "group": "last-30-days",
        "lat": -1.6835418196803886,
        "lon": 47.13860081201302,
        "alt_km": 345.97351063284987,
        "timestamp": "2025-12-27T15:27:09.834246+00:00",
        "meta_object_name": "STARLINK-35738",
        "meta_object_id": "2025-299Q",
        "meta_epoch": "2025-12-27T06:00:02.000160",
        "meta_mean_motion": 15.76153648,
        "meta_eccentricity": 0.00016338,
        "meta_inclination": 42.9987,
        "meta_ra_of_asc_node": 227.722,
        "meta_arg_of_pericenter": 274.591,
        "meta_mean_anomaly": 191.5291,
        "meta_ephemeris_type": 0,
        "meta_classification_type": "U",
        "meta_norad_cat_id": 67116,
        "meta_element_set_no": 999,
        "meta_rev_at_epoch": 303,
        "meta_bstar": -0.013222973,
        "meta_mean_motion_dot": -0.01862184,
        "meta_mean_motion_ddot": 0,
        "tle_line1": "1 67116U 25299Q   25361.25002315 -.01862184  00000+0 -13223-1 0  9996",
        "tle_line2": "2 67116  42.9987 227.7220 0001633 274.5910 191.5291 15.76153648  3035"
      },
      "geometry": {
        "type": "Point",
        "coordinates": [
          47.13860081201302,
          -1.6835418196803886
        ]
      }
    },
    {
      "type": "Feature",
      "properties": {
        "norad_id": 67117,
        "name": "STARLINK-35674",
        "group": "last-30-days",
        "lat": -2.8859374224814083,
        "lon": 48.42847761506026,
        "alt_km": 345.9996132667111,
        "timestamp": "2025-12-27T15:27:09.834256+00:00",
        "meta_object_name": "STARLINK-35674",
        "meta_object_id": "2025-299R",
        "meta_epoch": "2025-12-27T06:00:02.000160",
        "meta_mean_motion": 15.76163238,
        "meta_eccentricity": 0.00015823,
        "meta_inclination": 42.9991,
        "meta_ra_of_asc_node": 227.7182,
        "meta_arg_of_pericenter": 271.9855,
        "meta_mean_anomaly": 195.8897,
        "meta_ephemeris_type": 0,
        "meta_classification_type": "U",
        "meta_norad_cat_id": 67117,
        "meta_element_set_no": 999,
        "meta_rev_at_epoch": 293,
        "meta_bstar": -0.013262028,
        "meta_mean_motion_dot": -0.01867613,
        "meta_mean_motion_ddot": 0,
        "tle_line1": "1 67117U 25299R   25361.25002315 -.01867613  00000+0 -13262-1 0  9992",
        "tle_line2": "2 67117  42.9991 227.7182 0001582 271.9855 195.8897 15.76163238  2933"
      },
      "geometry": {
        "type": "Point",
        "coordinates": [
          48.42847761506026,
          -2.8859374224814083
        ]
      }
    },
    {
      "type": "Feature",
      "properties": {
        "norad_id": 67118,
        "name": "STARLINK-35701",
        "group": "last-30-days",
        "lat": -4.105480970977677,
        "lon": 49.740089326975315,
        "alt_km": 346.2786155234953,
        "timestamp": "2025-12-27T15:27:09.834266+00:00",
        "meta_object_name": "STARLINK-35701",
        "meta_object_id": "2025-299S",
        "meta_epoch": "2025-12-27T06:00:02.000160",
        "meta_mean_motion": 15.76162533,
        "meta_eccentricity": 0.00016373,
        "meta_inclination": 42.9988,
        "meta_ra_of_asc_node": 227.7132,
        "meta_arg_of_pericenter": 279.2785,
        "meta_mean_anomaly": 190.3837,
        "meta_ephemeris_type": 0,
        "meta_classification_type": "U",
        "meta_norad_cat_id": 67118,
        "meta_element_set_no": 999,
        "meta_rev_at_epoch": 309,
        "meta_bstar": -0.013177236,
        "meta_mean_motion_dot": -0.01857225,
        "meta_mean_motion_ddot": 0,
        "tle_line1": "1 67118U 25299S   25361.25002315 -.01857225  00000+0 -13177-1 0  9996",
        "tle_line2": "2 67118  42.9988 227.7132 0001637 279.2785 190.3837 15.76162533  3098"
      },
      "geometry": {
        "type": "Point",
        "coordinates": [
          49.740089326975315,
          -4.105480970977677
        ]
      }
    }
  ]
}